[{"OBJECT_NAME":"STARLINK-5091","OBJECT_ID":"2022-177BF","EPOCH":"2026-03-09T13:53:38.814144","MEAN_MOTION":15.031382,"ECCENTRICITY":8.06e-5,"INCLINATION":43.0026,"RA_OF_ASC_NODE":120.4912,"ARG_OF_PERICENTER":315.7493,"MEAN_ANOMALY":44.3285,"EPHEMERIS_TYPE":0,"CLASSIFICATION_TYPE":"U","NORAD_CAT_ID":54873,"ELEMENT_SET_NO":999,"REV_AT_EPOCH":17709,"BSTAR":0.00023146,"MEAN_MOTION_DOT":2.974e-5,"MEAN_MOTION_DDOT":0},{"OBJECT_NAME":"COSMOS 397 DEB","OBJECT_ID":"1971-015CL","EPOCH":"2026-03-09T09:22:46.507584","MEAN_MOTION":13.84977696,"ECCENTRICITY":0.05617651,"INCLINATION":65.8946,"RA_OF_ASC_NODE":104.3108,"ARG_OF_PERICENTER":166.7711,"MEAN_ANOMALY":194.8817,"EPHEMERIS_TYPE":0,"CLASSIFICATION_TYPE":"U","NORAD_CAT_ID":6844,"ELEMENT_SET_NO":999,"REV_AT_EPOCH":60675,"BSTAR":0.00073965621,"MEAN_MOTION_DOT":2.836e-5,"MEAN_MOTION_DDOT":0}]
